{
  "norad_id": 65613,
  "name": "STARLINK-35162",
  "history": [
    {
      "epoch": "2026-03-28T18:22:44.295744",
      "apogee_km": 549.9258830402769,
      "perigee_km": 549.3093128810588,
      "latitude_deg": -42.55900960824896,
      "longitude_deg": 94.8158841598779,
      "semi_major_axis_km": 6927.7545979606675,
      "eccentricity": 4.45e-05,
      "inclination_deg": 97.6019,
      "raan_deg": 157.4981,
      "arg_perigee_deg": 114.1556,
      "mean_anomaly_deg": 245.9717,
      "mean_motion_rev_day": 15.05615299
    },
    {
      "epoch": "2026-03-29T03:56:56.574816",
      "apogee_km": 549.768531206546,
      "perigee_km": 549.3902778908578,
      "latitude_deg": -35.24339913182123,
      "longitude_deg": 133.09619424003176,
      "semi_major_axis_km": 6927.716404548702,
      "eccentricity": 2.73e-05,
      "inclination_deg": 97.6015,
      "raan_deg": 157.8909,
      "arg_perigee_deg": 110.7532,
      "mean_anomaly_deg": 249.3724,
      "mean_motion_rev_day": 15.0562775
    }
  ]
}